STARLINK-6171           
1 56883U 23083H   23354.76556890  .00000345  00000+0  40587-4 0  9998
2 56883  43.0021 162.9432 0001229 266.5345  93.5356 15.02534240 29833
STARLINK-5515           
1 56884U 23083J   23354.81540252 -.00001558  00000+0 -10032-3 0  9990
2 56884  43.0030 162.4599 0001179 266.5072  93.5635 15.02535314 29848
STARLINK-5095           
1 56885U 23083K   23354.75779855  .00000092  00000+0  21876-4 0  9996
2 56885  43.0026 162.8860 0001197 263.8240  96.2466 15.02537333 29830
STARLINK-5496           
1 56886U 23083L   23354.94723558  .00000189  00000+0  29063-4 0  9990
2 56886  43.0034 161.7284 0001250 266.7528  93.3171 15.02542396 29060
STARLINK-6180           
1 56887U 23083M   23354.95167471  .00000476  00000+0  50280-4 0  9992
2 56887  43.0037 161.7631 0001196 267.3241  92.7464 15.02544947 29060
STARLINK-6181           
1 56888U 23083N   23354.80096684  .00000402  00000+0  44828-4 0  9994
2 56888  43.0031 162.3500 0001497 268.9239  91.1432 15.02534934 29844
STARLINK-6169           
1 56889U 23083P   23354.81095735  .00000184  00000+0  28660-4 0  9995
2 56889  43.0035 162.4266 0001204 265.1702  94.9003 15.02537179 29848
STARLINK-5528           
1 56890U 23083Q   23354.80207765  .00000352  00000+0  41104-4 0  9999
2 56890  43.0034 162.3605 0001161 267.2813  92.7897 15.02537642 29845
STARLINK-6213           
1 56891U 23083R   23354.87410620  .00000012  00000+0  15931-4 0  9995
2 56891  43.0038 162.0400 0001330 266.5432  93.5258 15.02536593 29852
STARLINK-6219           
1 56892U 23083S   23354.79430507  .00000516  00000+0  53261-4 0  9990
2 56892  43.0028 162.2982 0001073 263.7742  96.2978 15.02537534 29840
STARLINK-6216           
1 56893U 23083T   23354.80429694  .00000185  00000+0  28747-4 0  9991
2 56893  43.0034 162.3768 0001182 264.6660  95.4047 15.02537620 29047
STARLINK-6144           
1 56894U 23083U   23354.79543086 -.00000348  00000+0 -10712-4 0  9998
2 56894  43.0025 162.3067 0001524 240.9320 119.1370 15.02541014 29966
STARLINK-6208           
1 56895U 23083V   23354.79763767  .00000136  00000+0  25134-4 0  9996
2 56895  43.0032 162.3250 0001237 265.3253  94.7448 15.02537997 29842
STARLINK-6202           
1 56896U 23083W   23354.78764384 -.00000586  00000+0 -28268-4 0  9994
2 56896  43.0027 162.2476 0001219 264.3371  95.7333 15.02547137 29959
STARLINK-6200           
1 56897U 23083X   23354.79098128 -.00000554  00000+0 -25973-4 0  9997
2 56897  43.0028 162.2729 0001161 264.4103  95.6607 15.02533722 29961
STARLINK-6205           
1 56898U 23083Y   23354.78098502  .00000976  00000+0  87308-4 0  9999
2 56898  43.0030 162.1988 0001162 269.9510  90.1199 15.02540907 29952
STARLINK-6203           
1 56899U 23083Z   23354.78433648 -.00002485  00000+0 -16901-3 0  9993
2 56899  43.0030 162.2216 0001359 255.5972 104.4720 15.02519010 29959
STARLINK-6207           
1 56900U 23083AA  23354.85116772  .00000141  00000+0  25481-4 0  9999
2 56900  43.0038 149.7297 0001305 275.0790  84.9904 15.02543224 29966
STARLINK-6185           
1 56901U 23083AB  23354.77876557  .00000027  00000+0  17093-4 0  9998
2 56901  43.0028 162.1809 0001173 264.6441  95.4268 15.02542405 29953
STARLINK-6195           
1 56902U 23083AC  23354.78136373 -.00000687  00000+0 -35802-4 0  9997
2 56902  43.0031 150.0646 0001201 258.7569 101.3139 15.02537859 30098
STARLINK-6192           
1 56903U 23083AD  23354.78209522  .00000615  00000+0  60612-4 0  9991
2 56903  43.0028 162.2051 0001171 272.0780  87.9929 15.02540150 29957
STARLINK-6193           
1 56904U 23083AE  23354.82453098 -.00000603  00000+0 -29550-4 0  9991
2 56904  43.0032 149.5246 0001246 270.4867  89.5832 15.02539393 29990
STARLINK-6183           
1 56905U 23083AF  23354.85336730  .00002093  00000+0  16982-3 0  9995
2 56905  43.0040 149.7464 0001213 270.9778  89.0926 15.02562137 29995
STARLINK-6098           
1 56906U 23083AG  23354.83896038 -.00000497  00000+0 -21696-4 0  9993
2 56906  43.0038 149.6370 0001206 268.0999  91.9705 15.02539905 29997
STARLINK-6110           
1 56907U 23083AH  23354.77581728  .00000231  00000+0  32141-4 0  9995
2 56907  43.0030 150.0232 0001141 275.3766  84.6946 15.02535088 30091
STARLINK-6186           
1 56908U 23083AJ  23354.76582333 -.00000180  00000+0  17162-5 0  9999
2 56908  43.0031 149.9462 0001152 261.6951  98.3761 15.02539086 29986
STARLINK-5999           
1 56909U 23083AK  23354.77914519 -.00000542  00000+0 -25029-4 0  9999
2 56909  43.0030 150.0487 0001079 267.0278  93.0441 15.02535546 30094
STARLINK-6179           
1 56910U 23083AL  23354.89433999 -.00000385  00000+0 -13460-4 0  9993
2 56910  43.0035 149.1894 0001228 271.8386  88.2316 15.02539132 30004
STARLINK-6116           
1 56911U 23083AM  23354.77026490 -.00000141  00000+0  46207-5 0  9990
2 56911  43.0030 149.9797 0001187 265.5062  94.5645 15.02538016 29985
STARLINK-5805           
1 56912U 23083AN  23354.75583882 -.00000874  00000+0 -49673-4 0  9995
2 56912  43.0027 149.8681 0001159 262.5047  97.5664 15.02533756 29982
STARLINK-5950           
1 56913U 23083AP  23354.83340899  .00000270  00000+0  35072-4 0  9990
2 56913  43.0028 149.5928 0001141 264.2968  95.7745 15.02542860 29994
STARLINK-5961           
1 56914U 23083AQ  23354.74917665 -.00000991  00000+0 -58330-4 0  9996
2 56914  43.0030 149.8187 0001165 263.1163  96.9547 15.02533876 29180
STARLINK-5965           
1 56915U 23083AR  23354.76360373 -.00000090  00000+0  83974-5 0  9999
2 56915  43.0028 149.9278 0001152 262.4140  97.6571 15.02536296 29985
STARLINK-5973           
1 56916U 23083AS  23354.74251501  .00000198  00000+0  29722-4 0  9998
2 56916  43.0033 149.7683 0001254 267.9807  92.0891 15.02535846 29954
STARLINK-5971           
1 56917U 23083AT  23354.75250512  .00000035  00000+0  17626-4 0  9991
2 56917  43.0029 149.8431 0001161 262.2992  97.7718 15.02537897 29983
STARLINK-5951           
1 56918U 23083AU  23354.87436013  .00000046  00000+0  18508-4 0  9999
2 56918  43.0040 149.0375 0001277 268.7323  91.3373 15.02539378 30001
STARLINK-5966           
1 56919U 23083AV  23354.87990846 -.00000029  00000+0  12951-4 0  9997
2 56919  43.0039 149.0793 0001257 269.9149  90.1550 15.02540706 30002
STARLINK-5960           
1 56920U 23083AW  23354.73457797  .00026641  00000+0  19686-2 0  9994
2 56920  43.0059 149.7180 0001310 167.4577 192.6298 15.02749850 29983
STARLINK-5958           
1 56921U 23083AX  23354.87658119  .00000283  00000+0  36035-4 0  9994
2 56921  43.0037 149.0539 0001268 270.0962  89.9735 15.02539428 30009
STARLINK-5937           
1 56922U 23083AY  23354.72919737 -.00000529  00000+0 -24122-4 0  9994
2 56922  43.0036 149.6682 0001187 264.5652  95.5054 15.02533442 29980
STARLINK-5952           
1 56923U 23083AZ  23354.73789232  .00028735  00000+0  21209-2 0  9999
2 56923  43.0071 149.7428 0000774 149.8644 210.2243 15.02760399 29985
STARLINK-5731           
1 56924U 23083BA  23354.79012097  .00001111  00000+0  97294-4 0  9992
2 56924  43.0036 149.2653 0001175 265.9116  94.1592 15.02541576 30108
STARLINK-5733           
1 56925U 23083BB  23354.72697411  .00000269  00000+0  35011-4 0  9997
2 56925  43.0035 149.6506 0001201 261.3057  98.7649 15.02540821 29982
STARLINK-5746           
1 56926U 23083BC  23354.73251117  .00003202  00000+0  25186-3 0  9999
2 56926  43.0034 149.6934 0002768 352.3311   7.7489 15.02559640 29981
STARLINK-5808           
1 56927U 23083BD  23354.56587460 -.00000888  00000+0 -27017-4 0  9999
2 56927  42.9949  70.9023 0001423 270.8089  89.2597 15.22576576 30877
FOSSASA-2E16            
1 56932U 23084A   23355.14285016  .00098768  00000+0  32392-2 0  9995
2 56932  97.5174 110.7737 0006873 283.9035  76.1441 15.31197903 29047
OTTER PUP               
1 56933U 23084B   23354.87269329  .00014695  00000+0  72257-3 0  9996
2 56933  97.5234 109.1632 0007243 257.5426 102.4997 15.18106547 28917
GEISAT PRECURSOR        
1 56934U 23084C   23355.08308322  .00011870  00000+0  63314-3 0  9994
2 56934  97.5275 109.1717 0007969 295.0598  64.9807 15.15287161 28921
FOSSASA-2E17            
1 56935U 23084D   23355.09853086  .00081061  00000+0  29001-2 0  9991
2 56935  97.5154 110.4950 0006092 279.4202  80.6349 15.28450351 29021
FOSSASA-2E14            
1 56936U 23084E   23355.11341074  .00086028  00000+0  31396-2 0  9992
2 56936  97.5170 110.4886 0006505 284.0983  75.9532 15.27770133 29028
EIVE                    
1 56937U 23084F   23355.08121615  .00019764  00000+0  98310-3 0  9999
2 56937  97.5237 109.3984 0007256 288.9380  71.1067 15.17636857 28941
FOSSASA-2E15            
1 56938U 23084G   23355.12960770  .00065012  00000+0  24096-2 0  9994
2 56938  97.5178 110.4782 0005595 276.5967  83.4634 15.27366194 29024
LAYAN-23                
1 56939U 23084H   23355.14502002  .00022683  00000+0  10985-2 0  9996
2 56939  97.5238 109.6371 0007642 281.3384  78.6991 15.18538576 28967
MISR-B-2                
1 56940U 23084J   23354.91286688  .00036721  00000+0  16104-2 0  9998
2 56940  97.5244 109.8245 0007695 277.9386  82.0977 15.21854361 28958
2023-084K               
1 56941U 23084K   23355.10656223  .00023495  00000+0  11181-2 0  9991
2 56941  97.5267 109.7379 0007912 264.5901  95.4431 15.19138664 28960
AFRL-XVI                
1 56942U 23084L   23354.81889694  .00019514  00000+0  95570-3 0  9991
2 56942  97.5275 109.3857 0008497 283.3153  76.7133 15.18174002 28915
NUSAT-40 (C SHOEMAKER)  
1 56943U 23084M   23355.12775207  .00011529  00000+0  60280-3 0  9999
2 56943  97.5258 109.3557 0009354 279.3853  80.6322 15.15992462 28941
NUSAT-41 (C PAYNE-G)    
1 56944U 23084N   23355.10889031  .00010807  00000+0  56189-3 0  9990
2 56944  97.5245 109.3512 0009042 280.7448  79.2766 15.16208271 28944
2023-084P               
1 56945U 23084P   23355.11423824  .00030355  00000+0  13632-2 0  9991
2 56945  97.5222 109.9168 0007519 275.2977  84.7400 15.21086356 28980
